AALTO-2                 
1 42729U 98067MJ  18047.14115681  .00023991  00000-0  24570-3 0  9996
2 42729  51.6355 251.8836 0003345 146.4374 213.6833 15.64847175 41377
SUSAT                   
1 42730U 98067MK  18046.79961661  .00016278  00000-0  17280-3 0  9995
2 42730  51.6352 254.0940 0003431 141.6342 218.4898 15.64228071 41300
I-INSPIRE II            
1 42731U 98067ML  18046.77799195  .00024077  00000-0  23154-3 0  9998
2 42731  51.6346 252.4216 0005810  94.6979 265.4681 15.66417855 41379
POLYITAN-2-SAU          
1 42732U 98067MM  18047.12230289  .00023717  00000-0  24095-3 0  9998
2 42732  51.6351 251.7332 0006054  93.1956 266.9732 15.65046306 41413
SNUSAT-1B               
1 42733U 98067MN  18046.86502754  .00017047  00000-0  18063-3 0  9995
2 42733  51.6353 253.7718 0006261  94.3668 265.8043 15.64222345 41364
EXALTA-1                
1 42734U 98067MP  18047.16604832  .00034613  00000-0  32877-3 0  9997
2 42734  51.6332 250.5104 0007104 118.7821 241.3889 15.66508542 41382
AOXIANG-1               
1 42735U 98067MQ  18047.15551658  .00017574  00000-0  19681-3 0  9999
2 42735  51.6350 253.4646 0007103 135.0854 225.0716 15.62769874 42767
BEEAGLESAT              
1 42736U 98067MR  18047.17006430  .00020802  00000-0  22471-3 0  9994
2 42736  51.6347 252.8086 0006889 134.8308 225.3247 15.63568695 41463
ATLANTIS                
1 42737U 98067MS  18046.76780948  .00139344  00000-0  60005-3 0  9999
2 42737  51.6247 241.6982 0004267 183.1085 176.9892 15.84064466 41468
UCLSAT                  
1 42765U 17036A   18046.62109019  .00001363  00000-0  63546-4 0  9999
2 42765  97.4179 108.3476 0013092 137.2917 222.9339 15.21509029 36819
LITUANICASAT-2          
1 42768U 17036D   18046.36898931  .00002313  00000-0  10757-3 0  9992
2 42768  97.4190 107.7836 0017346 129.9423 230.3340 15.20833811 36042
AALTO-1                 
1 42775U 17036L   18046.36126851  .00001013  00000-0  49356-4 0  9999
2 42775  97.4177 107.7802 0015661 127.2670 232.9996 15.20515639 35983
URSA MAIOR              
1 42776U 17036M   18046.61671579  .00000991  00000-0  48280-4 0  9999
2 42776  97.4181 108.0599 0015558 126.7160 233.5508 15.20580695 36025
COMPASS 2               
1 42777U 17036N   18046.60753759  .00001805  00000-0  83601-4 0  9991
2 42777  97.4197 108.2595 0014489 130.1989 230.0517 15.21294323 36024
DIAMOND RED             
1 42783U 17036U   18046.65682350  .00000935  00000-0  44943-4 0  9990
2 42783  97.4181 108.3037 0013698 137.2809 222.9495 15.21185223 36030
PEGASUS                 
1 42784U 17036V   18046.38097949  .00001392  00000-0  65135-4 0  9999
2 42784  97.4183 108.0655 0013606 138.2912 221.9363 15.21340771 35999
DIAMOND GREEN           
1 42785U 17036W   18046.45862923  .00001140  00000-0  54122-4 0  9995
2 42785  97.4182 108.1175 0013564 138.3571 221.8700 15.21188484 36077
DIAMOND BLUE            
1 42786U 17036X   18046.65502409  .00001128  00000-0  53615-4 0  9990
2 42786  97.4182 108.3118 0013419 137.9775 222.2493 15.21185406 36027
NUDTSAT                 
1 42787U 17036Y   18046.53688515  .00001856  00000-0  84733-4 0  9994
2 42787  97.4187 108.3186 0013214 137.7986 222.4270 15.21774760 35866
SUCHAI                  
1 42788U 17036Z   18046.62057604  .00001510  00000-0  69981-4 0  9999
2 42788  97.4183 108.3541 0013262 137.4514 222.7752 15.21554788 36107
SKCUBE                  
1 42789U 17036AA  18046.61800108  .00001409  00000-0  65524-4 0  9990
2 42789  97.4181 108.3539 0013088 137.3314 222.8941 15.21542276 36027
VZLUSAT-1               
1 42790U 17036AB  18046.46250777  .00001996  00000-0  90847-4 0  9993
2 42790  97.4183 108.2533 0012751 138.1310 222.0903 15.21805687 36001
ROBUSTA-1B              
1 42792U 17036AD  18046.40046893  .00001569  00000-0  72316-4 0  9998
2 42792  97.4180 108.1787 0012619 138.8910 221.3279 15.21678900 36000
CICERO 6                
1 42793U 17036AE  18046.78119919  .00000914  00000-0  43468-4 0  9999
2 42793  97.4174 108.5786 0011748 138.0572 222.1566 15.21637254 36134
D-SAT                   
1 42794U 17036AF  18046.15642558  .00000361  00000-0  37285-4 0  9997
2 42794  97.6097 105.3149 0126384 328.8431  30.5336 14.90780877 35540
TOKI                    
1 42820U 98067MU  18046.47013976  .00014780  00000-0  16685-3 0  9991
2 42820  51.6352 257.8870 0003002  80.0349 280.0984 15.62735356 34816
GHANASAT-1              
1 42821U 98067MV  18046.81102560  .00014074  00000-0  16089-3 0  9992
2 42821  51.6350 256.4137 0003031  84.2850 275.8490 15.62457305 34821
MAZAALAI (NUMSAT-1)     
1 42822U 98067MW  18046.55025378  .00013552  00000-0  15454-3 0  9990
2 42822  51.6352 257.6744 0003064  85.5205 274.6139 15.62560361 34807
BRAC ONNESHA            
1 42823U 98067MX  18045.97579757  .00014489  00000-0  16462-3 0  9991
2 42823  51.6359 260.5978 0005983  97.0167 263.1508 15.62577709 34711
NIGERIAEDUSAT-1         
1 42824U 98067MY  18046.05168095  .00015203  00000-0  17322-3 0  9992
2 42824  51.6365 260.3634 0005890  97.7934 262.3729 15.62459480 34690
SILU-1 (SILKROAD 1)     
1 42903U 17021F   18047.09563657  .00016299  00000-0  15593-3 0  9993
2 42903  42.7806 338.8213 0009635 178.0131  12.9673 15.66371819 30906
MIRATA                  
1 43015U 17073C   18046.76663818  .00001874  00000-0  15481-3 0  9997
2 43015  97.6971 342.9682 0258253 307.0121  50.7708 14.77809962 13203
ECAMSAT                 
1 43019U 98067NG  18046.99481499  .00005689  00000-0  87963-4 0  9994
2 43019  51.6386 262.1682 0005715  85.7266 274.4378 15.55718549 99673
ASTERIA                 
1 43020U 98067NH  18046.77987445  .00007986  00000-0  11713-3 0  9995
2 43020  51.6388 262.9878 0002928  85.2821 274.8505 15.56532042 13560
DELLINGR (RBLE)         
1 43021U 98067NJ  18046.86449327  .00006014  00000-0  92171-4 0  9997
2 43021  51.6387 262.8001 0002769  85.6512 274.4795 15.55845928 13578
TECHEDSAT 6             
1 43026U 98067NK  18047.06411868  .00075108  00000-0  76240-3 0  9992
2 43026  51.6352 258.8725 0003606 166.4425 193.6668 15.64523025 13544
OSIRIS-3U               
1 43027U 98067NL  18046.78858600  .00017861  00000-0  23763-3 0  9994
2 43027  51.6375 262.2936 0003263  75.2460 284.8894 15.58242045 13455
AEROCUBE 7B             
1 43042U 17071F   18046.58359620  .00003014  00000-0  89725-4 0  9999
2 43042  51.6388 273.5652 0005510 178.1478 181.9527 15.37995197 10889
AEROCUBE 7C             
1 43043U 17071G   18046.58324186  .00002814  00000-0  84441-4 0  9996
2 43043  51.6389 273.5637 0005476 177.9249 182.1758 15.38003176 10852
CHEFSAT                 
1 43044U 17071H   18046.70569324  .00005771  00000-0  16047-3 0  9997
2 43044  51.6386 272.8838 0005531 174.4462 185.6584 15.38335827 10874
ASGARDIA 1              
1 43049U 17071N   18046.57546883  .00003090  00000-0  91215-4 0  9995
2 43049  51.6389 273.5139 0002659 189.1957 170.8978 15.38164177 10853
ISARA                   
1 43050U 17071P   18046.83160628  .00005347  00000-0  14943-3 0  9994
2 43050  51.6387 272.2272 0002771 184.8267 175.2691 15.38338249 10885
FAUNA                   
1 43052U 17071R   18046.57251816  .00003322  00000-0  97060-4 0  9990
2 43052  51.6392 273.4971 0002639 184.6054 175.4907 15.38244119 10847
MICROMAS-2A             
1 43132U 18004X   18046.78161060  .00001441  00000-0  65654-4 0  9994
2 43132  97.5505 109.0592 0010779 155.5585 204.6164 15.22286403  5247
